NORAD_CAT_ID,OBJECT_NAME,OBJECT_TYPE,EPOCH,MEAN_MOTION,ECCENTRICITY,INCLINATION,RA_OF_ASC_NODE,ARG_OF_PERICENTER,MEAN_ANOMALY,BSTAR,MEAN_MOTION_DOT,MEAN_MOTION_DDOT,TLE_LINE0,TLE_LINE1,TLE_LINE2,SEMIMAJOR_AXIS,PERIOD,APOGEE,PERIGEE,DECAYED
55272.0,STARLINK-5310,PAYLOAD,2024-02-23 04:42:34,14.98334755,0.0003057,69.9992,124.296,269.1709,90.91,6.9744e-05,7.39e-06,0.0,0 STARLINK-5310,1 55272U 23010D   24054.19622957  .00000739  00000-0  69744-4 0  9996,2 55272  69.9992 124.2960 0003057 269.1709  90.9100 14.98334755 60802,6950.178,96.107,574.168,569.919,0.0
55272.0,STARLINK-5310,PAYLOAD,2024-02-23 14:19:22,14.98343177,0.0003059,70.0007,123.2867,271.2642,88.8167,0.00025467,2.948e-05,0.0,0 STARLINK-5310,1 55272U 23010D   24054.59678340  .00002948  00000-0  25467-3 0  9994,2 55272  70.0007 123.2867 0003059 271.2642  88.8167 14.98343177 61177,6950.152,96.106,574.143,569.891,0.0
55272.0,STARLINK-5310,PAYLOAD,2024-02-24 04:44:34,14.98333714,0.0002423,70.0028,121.7738,258.8384,101.2503,0.00018302,2.092e-05,0.0,0 STARLINK-5310,1 55272U 23010D   24055.19762695  .00002092  00000-0  18302-3 0  9998,2 55272  70.0028 121.7738 0002423 258.8384 101.2503 14.98333714 60953,6950.181,96.107,573.73,570.362,0.0
55272.0,STARLINK-5310,PAYLOAD,2024-02-24 11:09:05,14.98361037,0.000286,70.0008,121.0997,271.2795,88.8036,0.00061572,7.267e-05,0.0,0 STARLINK-5310,1 55272U 23010D   24055.46464382  .00007267  00000-0  61572-3 0  9996,2 55272  70.0008 121.0997 0002860 271.2795  88.8036 14.98361037 60995,6950.097,96.105,573.95,569.974,0.0
55272.0,STARLINK-5310,PAYLOAD,2024-02-24 14:21:13,14.9846979,0.0003427,69.9996,120.7612,260.7724,99.3048,0.0017817,0.00021308,0.0,0 STARLINK-5310,1 55272U 23010D   24055.59806845  .00021308  00000-0  17817-2 0  9998,2 55272  69.9996 120.7612 0003427 260.7724  99.3048 14.98469790 61326,6949.761,96.098,574.007,569.244,0.0
55272.0,STARLINK-5310,PAYLOAD,2024-02-24 22:21:43,14.98572156,0.0003363,70.0,119.919,280.8151,79.2629,0.0027942,0.00033618,0.0,0 STARLINK-5310,1 55272U 23010D   24055.93175348  .00033618  00000-0  27942-2 0  9990,2 55272  70.0000 119.9190 0003363 280.8151  79.2629 14.98572156 61370,6949.444,96.091,573.646,568.972,0.0
55272.0,STARLINK-5310,PAYLOAD,2024-02-25 04:45:59,14.98738466,0.0002704,70.0016,119.248,242.3596,117.7289,0.0042974,0.00052114,0.0,0 STARLINK-5310,1 55272U 23010D   24056.19860884  .00052114  00000-0  42974-2 0  9999,2 55272  70.0016 119.2480 0002704 242.3596 117.7289 14.98738466 61105,6948.93,96.081,572.674,568.916,0.0
55272.0,STARLINK-5310,PAYLOAD,2024-02-25 12:46:27,14.98814677,0.0002756,70.0,118.4038,261.8987,98.1859,0.0047032,0.00057198,0.0,0 STARLINK-5310,1 55272U 23010D   24056.53226242  .00057198  00000-0  47032-2 0  9998,2 55272  70.0000 118.4038 0002756 261.8987  98.1859 14.98814677 61154,6948.694,96.076,572.475,568.644,0.0
55272.0,STARLINK-5310,PAYLOAD,2024-02-25 14:22:33,14.98821608,0.0003059,69.9994,118.235,269.8034,90.2775,0.0046947,0.00057105,0.0,0 STARLINK-5310,1 55272U 23010D   24056.59899870  .00057105  00000-0  46947-2 0  9999,2 55272  69.9994 118.2350 0003059 269.8034  90.2775 14.98821608 61473,6948.673,96.075,572.664,568.412,0.0
55272.0,STARLINK-5310,PAYLOAD,2024-02-25 20:46:57,14.98843869,0.0003058,70.0012,117.5623,268.369,91.7119,0.0046699,0.00056833,0.0,0 STARLINK-5310,1 55272U 23010D   24056.86594765  .00056833  00000-0  46699-2 0  9995,2 55272  70.0012 117.5623 0003058 268.3690  91.7119 14.98843869 61519,6948.604,96.074,572.594,568.344,0.0
55272.0,STARLINK-5310,PAYLOAD,2024-02-26 12:47:56,14.98903881,0.0002657,69.9996,115.8779,263.6647,96.421,0.0045441,0.00055374,0.0,0 STARLINK-5310,1 55272U 23010D   24057.53328924  .00055374  00000-0  45441-2 0  9995,2 55272  69.9996 115.8779 0002657 263.6647  96.4210 14.98903881 61306,6948.419,96.07,572.13,568.438,0.0
55272.0,STARLINK-5310,PAYLOAD,2024-02-26 14:24:01,14.98912916,0.0002854,69.9995,115.7091,262.613,97.4705,0.0045404,0.00055342,0.0,0 STARLINK-5310,1 55272U 23010D   24057.60002119  .00055342  00000-0  45404-2 0  9992,2 55272  69.9995 115.7091 0002854 262.6130  97.4705 14.98912916 61620,6948.391,96.07,572.239,568.273,0.0
55272.0,STARLINK-5310,PAYLOAD,2024-02-26 17:36:13,14.99020544,0.0003121,69.9997,115.3717,269.4942,90.586,0.0047974,0.00058672,0.0,0 STARLINK-5310,1 55272U 23010D   24057.73349102  .00058672  00000-0  47974-2 0  9995,2 55272  69.9997 115.3717 0003121 269.4942  90.5860 14.99020544 61339,6948.058,96.063,572.092,567.755,0.0
55272.0,STARLINK-5310,PAYLOAD,2024-02-27 11:13:03,14.99139635,0.0002963,69.9993,113.5188,263.8359,96.2463,0.00016894,1.965e-05,0.0,0 STARLINK-5310,1 55272U 23010D   24058.46740339  .00001965  00000-0  16894-3 0  9994,2 55272  69.9993 113.5188 0002963 263.8359  96.2463 14.99139635 61446,6947.69,96.055,571.614,567.497,0.0
55272.0,STARLINK-5310,PAYLOAD,2024-02-27 12:49:08,14.99142338,0.0003117,70.0003,113.3505,268.966,91.1143,0.00018351,2.143e-05,0.0,0 STARLINK-5310,1 55272U 23010D   24058.53412600  .00002143  00000-0  18351-3 0  9998,2 55272  70.0003 113.3505 0003117 268.9660  91.1143 14.99142338 61763,6947.682,96.055,571.713,567.381,0.0
55272.0,STARLINK-5310,PAYLOAD,2024-02-27 22:00:00,14.9911805,0.0003146,70.0,112.384,270.0892,354.01,0.0025545,0.00031154,0.0,0 STARLINK-5310,1 55272U 23010D   24058.91667824  .00031154  00000-0  25545-2 0  9996,2 55272  70.0000 112.3840 0003146 270.0892 354.0100 14.99118050  5737,6947.757,96.056,571.808,567.436,0.0
55272.0,STARLINK-5310,PAYLOAD,2024-02-28 12:50:22,14.99142505,0.0003015,69.9994,110.824,267.9677,92.1137,0.00010252,1.156e-05,0.0,0 STARLINK-5310,1 55272U 23010D   24059.53498668  .00001156  00000-0  10252-3 0  9992,2 55272  69.9994 110.8240 0003015 267.9677  92.1137 14.99142505 61604,6947.681,96.055,571.641,567.452,0.0
55272.0,STARLINK-5310,PAYLOAD,2024-02-28 20:50:47,14.99133013,0.000294,69.9991,109.9814,262.331,97.7515,0.00025187,2.976e-05,0.0,0 STARLINK-5310,1 55272U 23010D   24059.86861093  .00002976  00000-0  25187-3 0  9998,2 55272  69.9991 109.9814 0002940 262.3310  97.7515 14.99133013 61960,6947.711,96.056,571.618,567.533,0.0
55272.0,STARLINK-5310,PAYLOAD,2024-02-29 04:51:12,14.99136211,0.0003076,69.9991,109.1391,269.7786,90.3021,8.9989e-05,1.003e-05,0.0,0 STARLINK-5310,1 55272U 23010D   24060.20223086  .00001003  00000-0  89989-4 0  9993,2 55272  69.9991 109.1391 0003076 269.7786  90.3021 14.99136211 61707,6947.701,96.055,571.703,567.429,0.0
55272.0,STARLINK-5310,PAYLOAD,2024-02-29 12:51:37,14.99139677,0.0003072,69.999,108.2968,270.0349,90.0458,4.8146e-05,4.93e-06,0.0,0 STARLINK-5310,1 55272U 23010D   24060.53584840  .00000493  00000-0  48146-4 0  9999,2 55272  69.9990 108.2968 0003072 270.0349  90.0458 14.99139677 62062,6947.69,96.055,571.689,567.421,0.0
55272.0,STARLINK-5310,PAYLOAD,2024-02-29 20:52:02,14.99139666,0.0003063,69.999,107.4543,270.289,89.7918,6.3964e-05,6.86e-06,0.0,0 STARLINK-5310,1 55272U 23010D   24060.86946798  .00000686  00000-0  63964-4 0  9998,2 55272  69.9990 107.4543 0003063 270.2890  89.7918 14.99139666 62115,6947.69,96.055,571.683,567.427,0.0
55272.0,STARLINK-5310,PAYLOAD,2024-03-01 12:52:51,14.99144388,0.0003041,69.9989,105.7697,270.2171,89.864,0.00011863,1.352e-05,0.0,0 STARLINK-5310,1 55272U 23010D   24061.53670358  .00001352  00000-0  11863-3 0  9990,2 55272  69.9989 105.7697 0003041 270.2171  89.8640 14.99144388 62213,6947.676,96.055,571.653,567.428,0.0
55272.0,STARLINK-5310,PAYLOAD,2024-03-02 11:18:00,14.99143146,0.0002904,69.999,103.4114,268.8675,91.2151,0.00012925,1.482e-05,0.0,0 STARLINK-5310,1 55272U 23010D   24062.47083945  .00001482  00000-0  12925-3 0  9998,2 55272  69.9990 103.4114 0002904 268.8675  91.2151 14.99143146 62049,6947.679,96.055,571.562,567.527,0.0
55272.0,STARLINK-5310,PAYLOAD,2024-03-02 12:54:05,14.99143859,0.0002909,69.999,103.2429,268.9722,91.1104,0.00013251,1.521e-05,0.0,0 STARLINK-5310,1 55272U 23010D   24062.53756286  .00001521  00000-0  13251-3 0  9997,2 55272  69.9990 103.2429 0002909 268.9722  91.1104 14.99143859 62368,6947.677,96.055,571.563,567.521,0.0
55272.0,STARLINK-5310,PAYLOAD,2024-03-03 04:54:55,14.9913297,0.0002876,69.9993,101.5598,269.9929,90.0901,0.00018181,2.122e-05,0.0,0 STARLINK-5310,1 55272U 23010D   24063.20480879  .00002122  00000-0  18181-3 0  9999,2 55272  69.9993 101.5598 0002876 269.9929  90.0901 14.99132970 62154,6947.711,96.056,571.574,567.578,0.0
55272.0,STARLINK-5310,PAYLOAD,2024-03-03 12:55:19,14.99170454,0.0002564,69.9987,100.7167,256.5597,103.5276,-0.00054507,-6.734e-05,0.0,0 STARLINK-5310,1 55272U 23010D   24063.53841526 -.00006734  00000-0 -54507-3 0  9992,2 55272  69.9987 100.7167 0002564 256.5597 103.5276 14.99170454 62511,6947.595,96.053,571.241,567.679,0.0
55272.0,STARLINK-5310,PAYLOAD,2024-03-04 04:56:09,14.99144079,0.0002769,69.9986,99.0309,264.7722,95.3121,7.4556e-05,8.15e-06,0.0,0 STARLINK-5310,1 55272U 23010D   24064.20566103  .00000815  00000-0  74556-4 0  9991,2 55272  69.9986  99.0309 0002769 264.7722  95.3121 14.99144079 62304,6947.677,96.055,571.465,567.618,0.0
55272.0,STARLINK-5310,PAYLOAD,2024-03-04 11:20:28,14.99145321,0.0002554,69.9994,98.3583,256.3636,103.724,0.00011318,1.286e-05,0.0,0 STARLINK-5310,1 55272U 23010D   24064.47255478  .00001286  00000-0  11318-3 0  9999,2 55272  69.9994  98.3583 0002554 256.3636 103.7240 14.99145321 62657,6947.673,96.055,571.312,567.763,0.0
55272.0,STARLINK-5310,PAYLOAD,2024-03-04 19:20:54,14.9913406,0.0001897,70.0016,97.5157,289.3811,70.7144,6.2844e-05,6.72e-06,0.0,0 STARLINK-5310,1 55272U 23010D   24064.80618705  .00000672  00000-0  62844-4 0  9991,2 55272  70.0016  97.5157 0001897 289.3811  70.7144 14.99134060 62398,6947.708,96.055,570.89,568.255,0.0
55272.0,STARLINK-5310,PAYLOAD,2024-03-05 12:57:49,14.99129172,0.0002774,69.9987,95.6618,260.4678,99.6168,-1.0726e-05,-2.24e-06,0.0,0 STARLINK-5310,1 55272U 23010D   24065.54015450 -.00000224  00000-0 -10726-4 0  9998,2 55272  69.9987  95.6618 0002774 260.4678  99.6168 14.99129172 62810,6947.723,96.056,571.515,567.66,0.0
